[{"OBJECT_ID":"1997-051QW","OBJECT_NAME":"IRIDIUM 33 DEB","NORAD_CAT_ID":"35624","OBJECT_TYPE":"DEBRIS","PERIOD":"97.504","INCLINATION":"86.3524","ECCENTRICITY":"0.00284710","MEAN_MOTION":"14.76868512","TLE_LINE1":"1 35624U 97051QW  21271.07375219  .00012729  00000-0  17952-2 0  9996","TLE_LINE2":"2 35624  86.3524 301.0108 0028471 276.0131  83.7844 14.76868512658107"},{"OBJECT_ID":"1997-051QX","OBJECT_NAME":"IRIDIUM 33 DEB","NORAD_CAT_ID":"35625","OBJECT_TYPE":"DEBRIS","PERIOD":"101.769","INCLINATION":"86.1997","ECCENTRICITY":"0.01308850","MEAN_MOTION":"14.14973856","TLE_LINE1":"1 35625U 97051QX  21270.48255883  .00000888  00000-0  41356-3 0  9994","TLE_LINE2":"2 35625  86.1997 327.0128 0130885  57.8009  11.8564 14.14973856442126"},{"OBJECT_ID":"1997-051QZ","OBJECT_NAME":"IRIDIUM 33 DEB","NORAD_CAT_ID":"35627","OBJECT_TYPE":"DEBRIS","PERIOD":"98.855","INCLINATION":"86.3506","ECCENTRICITY":"0.00670040","MEAN_MOTION":"14.56675912","TLE_LINE1":"1 35627U 97051QZ  21270.42028128  .00004130  00000-0  89278-3 0  9999","TLE_LINE2":"2 35627  86.3506 316.5942 0067004  43.5479 317.0991 14.56675912651123"},{"OBJECT_ID":"1997-051RA","OBJECT_NAME":"IRIDIUM 33 DEB","NORAD_CAT_ID":"35628","OBJECT_TYPE":"DEBRIS","PERIOD":"99.619","INCLINATION":"86.3636","ECCENTRICITY":"0.00209680","MEAN_MOTION":"14.45511531","TLE_LINE1":"1 35628U 97051RA  21271.88619224  .00000969  00000-0  26847-3 0  9993","TLE_LINE2":"2 35628  86.3636 317.4955 0020968  90.2700 270.0905 14.45511531648006"},{"OBJECT_ID":"1997-051RB","OBJECT_NAME":"IRIDIUM 33 DEB","NORAD_CAT_ID":"35629","OBJECT_TYPE":"DEBRIS","PERIOD":"97.750","INCLINATION":"86.3528","ECCENTRICITY":"0.01314800","MEAN_MOTION":"14.73150925","TLE_LINE1":"1 35629U 97051RB  21272.15417457  .00017857  00000-0  24073-2 0  9991","TLE_LINE2":"2 35629  86.3528 329.9007 0131480  38.6250 322.4281 14.73150925647499"},{"OBJECT_ID":"1997-051RD","OBJECT_NAME":"IRIDIUM 33 DEB","NORAD_CAT_ID":"35631","OBJECT_TYPE":"DEBRIS","PERIOD":"99.839","INCLINATION":"86.3683","ECCENTRICITY":"0.00203280","MEAN_MOTION":"14.42317901","TLE_LINE1":"1 35631U 97051RD  21272.08651307  .00000355  00000-0  10131-3 0  9996","TLE_LINE2":"2 35631  86.3683 318.5141 0020328 163.6821 224.6795 14.42317901653156"},{"OBJECT_ID":"1997-051RE","OBJECT_NAME":"IRIDIUM 33 DEB","NORAD_CAT_ID":"35632","OBJECT_TYPE":"DEBRIS","PERIOD":"100.839","INCLINATION":"86.4281","ECCENTRICITY":"0.01015080","MEAN_MOTION":"14.28016850","TLE_LINE1":"1 35632U 97051RE  21270.86209836  .00001270  00000-0  47738-3 0  9997","TLE_LINE2":"2 35632  86.4281  62.9719 0101508 211.2365 148.2772 14.28016850636482"},{"OBJECT_ID":"1993-036ANJ","OBJECT_NAME":"COSMOS 2251 DEB","NORAD_CAT_ID":"35643","OBJECT_TYPE":"DEBRIS","PERIOD":"98.514","INCLINATION":"74.0101","ECCENTRICITY":"0.00453430","MEAN_MOTION":"14.61726781","TLE_LINE1":"1 35643U 93036ANJ 21272.38408893  .00001761  00000-0  35427-3 0  9998","TLE_LINE2":"2 35643  74.0101 308.9329 0045343  92.6992 267.9366 14.61726781660088"},{"OBJECT_ID":"1993-036ANK","OBJECT_NAME":"COSMOS 2251 DEB","NORAD_CAT_ID":"35644","OBJECT_TYPE":"DEBRIS","PERIOD":"95.253","INCLINATION":"74.0049","ECCENTRICITY":"0.00142880","MEAN_MOTION":"15.11759836","TLE_LINE1":"1 35644U 93036ANK 21271.46579073  .00016060  00000-0  93960-3 0  9990","TLE_LINE2":"2 35644  74.0049 306.6465 0014288 111.6532 248.6184 15.11759836673061"},{"OBJECT_ID":"1993-036ANL","OBJECT_NAME":"COSMOS 2251 DEB","NORAD_CAT_ID":"35645","OBJECT_TYPE":"DEBRIS","PERIOD":"101.068","INCLINATION":"73.9794","ECCENTRICITY":"0.00888900","MEAN_MOTION":"14.24778765","TLE_LINE1":"1 35645U 93036ANL 21271.30455715  .00001235  00000-0  51908-3 0  9994","TLE_LINE2":"2 35645  73.9794  23.9761 0088890 163.3624 197.0473 14.24778765647706"},{"OBJECT_ID":"1993-036ANM","OBJECT_NAME":"COSMOS 2251 DEB","NORAD_CAT_ID":"35646","OBJECT_TYPE":"DEBRIS","PERIOD":"107.693","INCLINATION":"73.8717","ECCENTRICITY":"0.04742770","MEAN_MOTION":"13.37130850","TLE_LINE1":"1 35646U 93036ANM 21271.43132400  .00000386  00000-0  41035-3 0  9998","TLE_LINE2":"2 35646  73.8717 325.0548 0474277 335.6304  34.4805 13.37130850613006"},{"OBJECT_ID":"1993-036ANN","OBJECT_NAME":"COSMOS 2251 DEB","NORAD_CAT_ID":"35647","OBJECT_TYPE":"DEBRIS","PERIOD":"100.385","INCLINATION":"74.0251","ECCENTRICITY":"0.00547090","MEAN_MOTION":"14.34480360","TLE_LINE1":"1 35647U 93036ANN 21272.21856569  .00000668  00000-0  24212-3 0  9996","TLE_LINE2":"2 35647  74.0251 244.9761 0054709 354.0324   6.0169 14.34480360644408"},{"OBJECT_ID":"1993-036ANR","OBJECT_NAME":"COSMOS 2251 DEB","NORAD_CAT_ID":"35650","OBJECT_TYPE":"DEBRIS","PERIOD":"99.242","INCLINATION":"74.0580","ECCENTRICITY":"0.00315370","MEAN_MOTION":"14.50993127","TLE_LINE1":"1 35650U 93036ANR 21271.81800160  .00001285  00000-0  32981-3 0  9999","TLE_LINE2":"2 35650  74.0580  74.4341 0031537 171.3487 254.8752 14.50993127652498"},{"OBJECT_ID":"1993-036ANW","OBJECT_NAME":"COSMOS 2251 DEB","NORAD_CAT_ID":"35655","OBJECT_TYPE":"DEBRIS","PERIOD":"98.116","INCLINATION":"73.9975","ECCENTRICITY":"0.00133540","MEAN_MOTION":"14.67644866","TLE_LINE1":"1 35655U 93036ANW 21271.67865858  .00002827  00000-0  50192-3 0  9990","TLE_LINE2":"2 35655  73.9975 265.4397 0013354 131.0590 229.1736 14.67644866660843"},{"OBJECT_ID":"1993-036ANZ","OBJECT_NAME":"COSMOS 2251 DEB","NORAD_CAT_ID":"35658","OBJECT_TYPE":"DEBRIS","PERIOD":"98.996","INCLINATION":"74.0155","ECCENTRICITY":"0.00208010","MEAN_MOTION":"14.54605941","TLE_LINE1":"1 35658U 93036ANZ 21267.20147018  .00001727  00000-0  40985-3 0  9995","TLE_LINE2":"2 35658  74.0155  75.5652 0020801 169.0120 191.1501 14.54605941652629"},{"OBJECT_ID":"1993-036APB","OBJECT_NAME":"COSMOS 2251 DEB","NORAD_CAT_ID":"35660","OBJECT_TYPE":"DEBRIS","PERIOD":"99.760","INCLINATION":"74.0413","ECCENTRICITY":"0.00200040","MEAN_MOTION":"14.43458333","TLE_LINE1":"1 35660U 93036APB 21271.29150759  .00000323  00000-0  10317-3 0  9995","TLE_LINE2":"2 35660  74.0413 118.6616 0020004 286.3223 189.3025 14.43458333436630"},{"OBJECT_ID":"1993-036APC","OBJECT_NAME":"COSMOS 2251 DEB","NORAD_CAT_ID":"35661","OBJECT_TYPE":"DEBRIS","PERIOD":"98.269","INCLINATION":"74.0232","ECCENTRICITY":"0.01289230","MEAN_MOTION":"14.65369650","TLE_LINE1":"1 35661U 93036APC 21271.52604767  .00001082  00000-0  18326-3 0  9996","TLE_LINE2":"2 35661  74.0232 195.9596 0128923 328.2978  31.0470 14.65369650657052"},{"OBJECT_ID":"1993-036APE","OBJECT_NAME":"COSMOS 2251 DEB","NORAD_CAT_ID":"35663","OBJECT_TYPE":"DEBRIS","PERIOD":"99.697","INCLINATION":"74.0291","ECCENTRICITY":"0.00144320","MEAN_MOTION":"14.44376465","TLE_LINE1":"1 35663U 93036APE 21270.02765458  .00000910  00000-0  27168-3 0  9990","TLE_LINE2":"2 35663  74.0291 143.8031 0014432 231.2048 128.7821 14.44376465510629"},{"OBJECT_ID":"1993-036APJ","OBJECT_NAME":"COSMOS 2251 DEB","NORAD_CAT_ID":"35667","OBJECT_TYPE":"DEBRIS","PERIOD":"99.695","INCLINATION":"74.0613","ECCENTRICITY":"0.00296430","MEAN_MOTION":"14.44410466","TLE_LINE1":"1 35667U 93036APJ 21268.38933414  .00000626  00000-0  18831-3 0  9990","TLE_LINE2":"2 35667  74.0613 147.3063 0029643 237.4086 122.4209 14.44410466484895"},{"OBJECT_ID":"1993-036APK","OBJECT_NAME":"COSMOS 2251 DEB","NORAD_CAT_ID":"35668","OBJECT_TYPE":"DEBRIS","PERIOD":"98.762","INCLINATION":"74.0442","ECCENTRICITY":"0.00895710","MEAN_MOTION":"14.58049711","TLE_LINE1":"1 35668U 93036APK 21271.38133303  .00000309  00000-0  70143-4 0  9997","TLE_LINE2":"2 35668  74.0442 272.4751 0089571  51.0333 309.8767 14.58049711652209"},{"OBJECT_ID":"1993-036APL","OBJECT_NAME":"COSMOS 2251 DEB","NORAD_CAT_ID":"35669","OBJECT_TYPE":"DEBRIS","PERIOD":"106.458","INCLINATION":"73.8631","ECCENTRICITY":"0.04010720","MEAN_MOTION":"13.52651439","TLE_LINE1":"1 35669U 93036APL 21271.96814690  .00000303  00000-0  29335-3 0  9997","TLE_LINE2":"2 35669  73.8631 133.1981 0401072 149.8592 212.6269 13.52651439612957"},{"OBJECT_ID":"1993-036APM","OBJECT_NAME":"COSMOS 2251 DEB","NORAD_CAT_ID":"35670","OBJECT_TYPE":"DEBRIS","PERIOD":"98.507","INCLINATION":"73.9082","ECCENTRICITY":"0.00639010","MEAN_MOTION":"14.61824275","TLE_LINE1":"1 35670U 93036APM 21272.16595653  .00001031  00000-0  20689-3 0  9999","TLE_LINE2":"2 35670  73.9082 197.7732 0063901 146.1578 214.3692 14.61824275652302"},{"OBJECT_ID":"1993-036APN","OBJECT_NAME":"COSMOS 2251 DEB","NORAD_CAT_ID":"35671","OBJECT_TYPE":"DEBRIS","PERIOD":"99.648","INCLINATION":"74.0188","ECCENTRICITY":"0.00432720","MEAN_MOTION":"14.45081244","TLE_LINE1":"1 35671U 93036APN 21271.83332444  .00000174  00000-0  57279-4 0  9993","TLE_LINE2":"2 35671  74.0188  69.7340 0043272 256.4642 172.1978 14.45081244646697"},{"OBJECT_ID":"1993-036APP","OBJECT_NAME":"COSMOS 2251 DEB","NORAD_CAT_ID":"35672","OBJECT_TYPE":"DEBRIS","PERIOD":"98.473","INCLINATION":"74.0582","ECCENTRICITY":"0.00465610","MEAN_MOTION":"14.62328661","TLE_LINE1":"1 35672U 93036APP 21271.43383046  .00001526  00000-0  30350-3 0  9996","TLE_LINE2":"2 35672  74.0582 323.7548 0046561  51.0804 321.9748 14.62328661650748"},{"OBJECT_ID":"1993-036APQ","OBJECT_NAME":"COSMOS 2251 DEB","NORAD_CAT_ID":"35673","OBJECT_TYPE":"DEBRIS","PERIOD":"95.994","INCLINATION":"73.9506","ECCENTRICITY":"0.00193330","MEAN_MOTION":"15.00100149","TLE_LINE1":"1 35673U 93036APQ 21271.93678279  .00009527  00000-0  76327-3 0  9990","TLE_LINE2":"2 35673  73.9506 358.5900 0019333 245.6359 114.2810 15.00100149659669"},{"OBJECT_ID":"1993-036APR","OBJECT_NAME":"COSMOS 2251 DEB","NORAD_CAT_ID":"35674","OBJECT_TYPE":"DEBRIS","PERIOD":"100.335","INCLINATION":"74.0651","ECCENTRICITY":"0.01310850","MEAN_MOTION":"14.35195223","TLE_LINE1":"1 35674U 93036APR 21271.02627370  .00000935  00000-0  30553-3 0  9992","TLE_LINE2":"2 35674  74.0651 282.1198 0131085 357.2122   2.8283 14.35195223639579"}]